0 COSMOS 1718
1 16451U 86002C   13281.01363970  .00000009  00000-0  17184-3 0  5244
2 16451 073.9863 104.7002 0013907 284.3242 245.3127 12.45031256261219
0 COSMOS 1718
1 16451U 86002C   13283.46973355  .00000016  00000-0  22061-3 0  5258
2 16451 073.9863 101.4578 0013912 280.8730 093.6077 12.45031402261525
0 COSMOS 1718
1 16451U 86002C   13285.49648098 -.00000008  00000-0  54148-4 0  5261
2 16451 073.9865 098.7822 0013925 277.9898 177.5930 12.45031802261774
0 COSMOS 1718
1 16451U 86002C   13287.50623368 -.00000039  00000-0 -16473-3 0  5272
2 16451 073.9868 096.1291 0013925 275.1375 185.4024 12.45031968262023
0 COSMOS 1718
1 16451U 86002C   13289.51521794 -.00000042  00000-0 -18539-3 0  5285
2 16451 073.9874 093.4770 0013929 272.3123 189.7434 12.45031951262277
0 COSMOS 1718
1 16451U 86002C   13292.16863841 -.00000004  00000-0  80576-4 0  5291
2 16451 073.9879 089.9744 0013921 268.5543 202.4992 12.45031645262607
0 COSMOS 1718
1 16451U 86002C   13294.17723624  .00000008  00000-0  16519-3 0  5308
2 16451 073.9881 087.3231 0013929 265.6969 205.1397 12.45031519262857
